$$SOE
2460728.500000000, A.D. 2025-Feb-22 00:00:00.0000, 2.074377705714953E+08, 4.190629250633429E+08, 1.402393090766841E+07,
2460735.500000000, A.D. 2025-Mar-01 00:00:00.0000, 1.977752240317152E+08, 4.233624765961506E+08, 1.276680767919567E+07,
2460742.500000000, A.D. 2025-Mar-08 00:00:00.0000, 1.880185813815699E+08, 4.274611010272614E+08, 1.150359821653509E+07,
2460749.500000000, A.D. 2025-Mar-15 00:00:00.0000, 1.781722933361131E+08, 4.313564304426720E+08, 1.023489198110369E+07,
2460756.500000000, A.D. 2025-Mar-22 00:00:00.0000, 1.682408828862470E+08, 4.350462142377275E+08, 8.961284559276938E+06,
2460763.500000000, A.D. 2025-Mar-29 00:00:00.0000, 1.582289409319787E+08, 4.385283201300489E+08, 7.683377108504564E+06,
2460770.500000000, A.D. 2025-Apr-05 00:00:00.0000, 1.481411234736318E+08, 4.418007359202672E+08, 6.401775707610399E+06,
2460777.500000000, A.D. 2025-Apr-12 00:00:00.0000, 1.379821484412777E+08, 4.448615720956374E+08, 5.117090796825260E+06,
2460784.500000000, A.D. 2025-Apr-19 00:00:00.0000, 1.277567919809922E+08, 4.477090643872411E+08, 3.829936653331757E+06,
2460791.500000000, A.D. 2025-Apr-26 00:00:00.0000, 1.174698844761854E+08, 4.503415760709448E+08, 2.540930861548245E+06,
2460798.500000000, A.D. 2025-May-03 00:00:00.0000, 1.071263064249702E+08, 4.527576000250577E+08, 1.250693770095617E+06,
2460805.500000000, A.D. 2025-May-10 00:00:00.0000, 9.673098420994699E+07, 4.549557605475069E+08, -4.015206557464600E+04,
2460812.500000000, A.D. 2025-May-17 00:00:00.0000, 8.628888580532111E+07, 4.569348148860964E+08, -1.330982460624874E+06,
2460819.500000000, A.D. 2025-May-24 00:00:00.0000, 7.580501660375708E+07, 4.586936544225516E+08, -2.621172217657566E+06,
2460826.500000000, A.D. 2025-May-31 00:00:00.0000, 6.528441578956411E+07, 4.602313058175098E+08, -3.910095794664323E+06,
2460833.500000000, A.D. 2025-Jun-07 00:00:00.0000, 5.473215286710856E+07, 4.615469333185705E+08, -5.197127887759984E+06,
2460840.500000000, A.D. 2025-Jun-14 00:00:00.0000, 4.415332199082607E+07, 4.626398415604889E+08, -6.481643765167356E+06,
2460847.500000000, A.D. 2025-Jun-21 00:00:00.0000, 3.355303532238698E+07, 4.635094755810831E+08, -7.763019729768634E+06,
2460854.500000000, A.D. 2025-Jun-28 00:00:00.0000, 2.293641855182024E+07, 4.641554198175658E+08, -9.040633851410240E+06,
2460861.500000000, A.D. 2025-Jul-05 00:00:00.0000, 1.230860707747850E+07, 4.645773982404885E+08, -1.031386665245184E+07,
2460868.500000000, A.D. 2025-Jul-12 00:00:00.0000, 1.674741665094576E+06, 4.647752748186526E+08, -1.158210170172763E+07,
2460875.500000000, A.D. 2025-Jul-19 00:00:00.0000, -8.960036214070829E+06, 4.647490537394813E+08, -1.284472617975008E+07,
2460882.500000000, A.D. 2025-Jul-26 00:00:00.0000, -1.959058914554755E+07, 4.644988793291305E+08, -1.410113143749776E+07,
2460889.500000000, A.D. 2025-Aug-02 00:00:00.0000, -3.021178855840642E+07, 4.640250356956853E+08, -1.535071355148900E+07,
2460896.500000000, A.D. 2025-Aug-09 00:00:00.0000, -4.081851950235319E+07, 4.633279460832596E+08, -1.659287387696233E+07,
2460903.500000000, A.D. 2025-Aug-16 00:00:00.0000, -5.140568532760113E+07, 4.624081718769225E+08, -1.782701960986975E+07,
2460910.500000000, A.D. 2025-Aug-23 00:00:00.0000, -6.196821196439381E+07, 4.612664112787644E+08, -1.905256438168535E+07,
2460917.500000000, A.D. 2025-Aug-30 00:00:00.0000, -7.250105146287137E+07, 4.599034983739301E+08, -2.026892885746190E+07,
2460924.500000000, A.D. 2025-Sep-06 00:00:00.0000, -8.299918620033416E+07, 4.583204035926278E+08, -2.147554112415659E+07,
2460931.500000000, A.D. 2025-Sep-13 00:00:00.0000, -9.345763541423608E+07, 4.565182330887290E+08, -2.267183691749892E+07,
2460938.500000000, A.D. 2025-Sep-20 00:00:00.0000, -1.038714607779121E+08, 4.544982253915665E+08, -2.385726011999398E+07,
2460945.500000000, A.D. 2025-Sep-27 00:00:00.0000, -1.142357699534244E+08, 4.522617484477400E+08, -2.503126337136453E+07,
2460952.500000000, A.D. 2025-Oct-04 00:00:00.0000, -1.245457201301750E+08, 4.498102975990858E+08, -2.619330856132057E+07,
2460959.500000000, A.D. 2025-Oct-11 00:00:00.0000, -1.347965219155577E+08, 4.471454935603467E+08, -2.734286724637276E+07,
2460966.500000000, A.D. 2025-Oct-18 00:00:00.0000, -1.449834432874058E+08, 4.442690801301599E+08, -2.847942103839430E+07,
2460973.500000000, A.D. 2025-Oct-25 00:00:00.0000, -1.551018134619359E+08, 4.411829216554592E+08, -2.960246197646046E+07,
2460980.500000000, A.D. 2025-Nov-01 00:00:00.0000, -1.651470266308502E+08, 4.378890002738038E+08, -3.071149288411623E+07,
2460987.500000000, A.D. 2025-Nov-08 00:00:00.0000, -1.751145455265402E+08, 4.343894129107382E+08, -3.180602771764767E+07,
2460994.500000000, A.D. 2025-Nov-15 00:00:00.0000, -1.849999046618252E+08, 4.306863679817813E+08, -3.288559192356016E+07,
2461001.500000000, A.D. 2025-Nov-22 00:00:00.0000, -1.947987128368771E+08, 4.267821820272223E+08, -3.394972282411182E+07,
2461008.500000000, A.D. 2025-Nov-29 00:00:00.0000, -2.045066550631699E+08, 4.226792774234620E+08, -3.499796992418928E+07,
2461015.500000000, A.D. 2025-Dec-06 00:00:00.0000, -2.141194961788370E+08, 4.183801810449112E+08, -3.602989494217864E+07,
2461022.500000000, A.D. 2025-Dec-13 00:00:00.0000, -2.236330857174723E+08, 4.138875205146520E+08, -3.704507188009824E+07,
2461029.500000000, A.D. 2025-Dec-20 00:00:00.0000, -2.330433605349799E+08, 4.092040190735414E+08, -3.804308736939521E+07,
2461036.500000000, A.D. 2025-Dec-27 00:00:00.0000, -2.423463462686649E+08, 4.043324916689046E+08, -3.902354098258856E+07,
2461043.500000000, A.D. 2026-Jan-03 00:00:00.0000, -2.515381590867565E+08, 3.992758416582083E+08, -3.998604542784134E+07,
2461050.500000000, A.D. 2026-Jan-10 00:00:00.0000, -2.606150076172348E+08, 3.940370574581767E+08, -4.093022669220258E+07,
2461057.500000000, A.D. 2026-Jan-17 00:00:00.0000, -2.695731948229129E+08, 3.886192090566814E+08, -4.185572416243269E+07,
2461064.500000000, A.D. 2026-Jan-24 00:00:00.0000, -2.784091197450399E+08, 3.830254444189399E+08, -4.276219072883303E+07,
2461071.500000000, A.D. 2026-Jan-31 00:00:00.0000, -2.871192790927634E+08, 3.772589857893080E+08, -4.364929287498698E+07,
2461078.500000000, A.D. 2026-Feb-07 00:00:00.0000, -2.957002686183802E+08, 3.713231258397592E+08, -4.451671076391712E+07,
2461085.500000000, A.D. 2026-Feb-14 00:00:00.0000, -3.041487840274779E+08, 3.652212236579638E+08, -4.536413834536409E+07,
2461092.500000000, A.D. 2026-Feb-21 00:00:00.0000, -3.124616210393758E+08, 3.589567011600389E+08, -4.619128347293575E+07,
2461099.500000000, A.D. 2026-Feb-28 00:00:00.0000, -3.206356756867885E+08, 3.525330410898287E+08, -4.699786783803469E+07,
2461106.500000000, A.D. 2026-Mar-07 00:00:00.0000, -3.286679469173572E+08, 3.459537846640005E+08, -4.778362669211680E+07,
2461113.500000000, A.D. 2026-Mar-14 00:00:00.0000, -3.365555387233563E+08, 3.392225265378422E+08, -4.854830880292238E+07,
2461120.500000000, A.D. 2026-Mar-21 00:00:00.0000, -3.442956600198157E+08, 3.323429099948250E+08, -4.929167657142408E+07,
2461127.500000000, A.D. 2026-Mar-28 00:00:00.0000, -3.518856242859914E+08, 3.253186233952313E+08, -5.001350604197058E+07,
2461134.500000000, A.D. 2026-Apr-04 00:00:00.0000, -3.593228495784868E+08, 3.181533969254751E+08, -5.071358683004794E+07,
2461141.500000000, A.D. 2026-Apr-11 00:00:00.0000, -3.666048586459854E+08, 3.108509992940345E+08, -5.139172202267669E+07,
2461148.500000000, A.D. 2026-Apr-18 00:00:00.0000, -3.737292789905553E+08, 3.034152343723329E+08, -5.204772806701882E+07,
2461155.500000000, A.D. 2026-Apr-25 00:00:00.0000, -3.806938428342589E+08, 2.958499378000551E+08, -5.268143465069173E+07,
2461162.500000000, A.D. 2026-May-02 00:00:00.0000, -3.874963869650040E+08, 2.881589735299278E+08, -5.329268457959399E+07,
2461169.500000000, A.D. 2026-May-09 00:00:00.0000, -3.941348523415053E+08, 2.803462302501817E+08, -5.388133367065962E+07,
2461176.500000000, A.D. 2026-May-16 00:00:00.0000, -4.006072830834994E+08, 2.724156178270668E+08, -5.444725068339952E+07,
2461183.500000000, A.D. 2026-May-23 00:00:00.0000, -4.069118247992886E+08, 2.643710647930446E+08, -5.499031721181162E+07,
2461190.500000000, A.D. 2026-May-30 00:00:00.0000, -4.130467243336194E+08, 2.562165172028818E+08, -5.551042732040340E+07,
2461197.500000000, A.D. 2026-Jun-06 00:00:00.0000, -4.190103312580446E+08, 2.479559355869181E+08, -5.600748716340200E+07,
2461204.500000000, A.D. 2026-Jun-13 00:00:00.0000, -4.248010974413961E+08, 2.395932902019727E+08, -5.648141490731601E+07,
2461211.500000000, A.D. 2026-Jun-20 00:00:00.0000, -4.304175752065559E+08, 2.311325575058777E+08, -5.693214067219803E+07,
2461218.500000000, A.D. 2026-Jun-27 00:00:00.0000, -4.358584157795627E+08, 2.225777175173360E+08, -5.735960636510675E+07,
2461225.500000000, A.D. 2026-Jul-04 00:00:00.0000, -4.411223680379627E+08, 2.139327512892556E+08, -5.776376547069802E+07,
2461232.500000000, A.D. 2026-Jul-11 00:00:00.0000, -4.462082773097052E+08, 2.052016383661738E+08, -5.814458283418066E+07,
2461239.500000000, A.D. 2026-Jul-18 00:00:00.0000, -4.511150841344323E+08, 1.963883542531049E+08, -5.850203444391026E+07,
2461246.500000000, A.D. 2026-Jul-25 00:00:00.0000, -4.558418229670936E+08, 1.874968678994292E+08, -5.883610721635668E+07,
2461253.500000000, A.D. 2026-Aug-01 00:00:00.0000, -4.603876207801177E+08, 1.785311391501281E+08, -5.914679879241781E+07,
2461260.500000000, A.D. 2026-Aug-08 00:00:00.0000, -4.647516953535389E+08, 1.694951161285720E+08, -5.943411736827353E+07,
2461267.500000000, A.D. 2026-Aug-15 00:00:00.0000, -4.689333528422220E+08, 1.603927330010253E+08, -5.969808156251261E+07,
2461274.500000000, A.D. 2026-Aug-22 00:00:00.0000, -4.729319853855489E+08, 1.512279093435416E+08, -5.993872015039025E+07,
2461281.500000000, A.D. 2026-Aug-29 00:00:00.0000, -4.767470710538319E+08, 1.420045497379641E+08, -6.015607156817504E+07,
2461288.500000000, A.D. 2026-Sep-05 00:00:00.0000, -4.803781740027873E+08, 1.327265407292466E+08, -6.035018361839953E+07,
2461295.500000000, A.D. 2026-Sep-12 00:00:00.0000, -4.838249423838931E+08, 1.233977476395264E+08, -6.052111339726463E+07,
$$EOE